IRIDIUM 921             
1 24873U 97034E   24256.55392352  .00164978  00000+0  31314-2 0  9998
2 24873  86.3741 244.5983 0002780 142.0512 218.0943 15.47698336488652
IRIDIUM 26              
1 24903U 97043A   24256.54223979  .00003561  00000+0  12055-2 0  9990
2 24903  86.3954 227.0875 0002206  87.2434 272.9015 14.36583127416876
IRIDIUM 22              
1 24907U 97043E   24256.45659800  .00002037  00000+0  70266-3 0  9996
2 24907  86.3951 230.4282 0002365  89.1547 270.9921 14.35453232416921
DUMMY MASS 1            
1 24925U 97048A   24256.51361022  .00002017  00000+0  22541-3 0  9995
2 24925  86.3288 263.6200 0008802  61.1850 299.0257 14.86414246463879
DUMMY MASS 2            
1 24926U 97048B   24256.49714037  .00002010  00000+0  22594-3 0  9992
2 24926  86.3288 265.1872 0009809  69.1148 291.1126 14.86170791463656
IRIDIUM 29              
1 24944U 97051A   24256.50177857  .00002460  00000+0  84240-3 0  9996
2 24944  86.3896 260.2788 0002512  90.2362 269.9123 14.35902762413414
IRIDIUM 28              
1 24948U 97051E   24256.51734168  .00002402  00000+0  80678-3 0  9992
2 24948  86.3903 257.9437 0001835  89.3270 270.8138 14.36857467413964
